1 41859U 16069A   17346.43813178 +.00000077 +00000-0 +00000-0 0  9999
2 41859 054.5764 187.3837 0002512 296.0219 064.0196 01.70473426006563
